{
  "type": "FeatureCollection",
  "features": [
    {
      "type": "Feature",
      "properties": {
        "name": "Tuin Graafland"
      },
      "geometry": {
        "type": "Polygon",
        "coordinates": [
          [
            [
              4.853927,
              51.925346
            ],
            [
              4.855246,
              51.923942
            ],
            [
              4.855718,
              51.92412
            ],
            [
              4.855134,
              51.924713
            ],
            [
              4.854895,
              51.924696
            ],
            [
              4.854189,
              51.925513
            ],
            [
              4.853927,
              51.925346
            ]
          ]
        ]
      }
    },
    {
      "type": "Feature",
      "properties": {
        "name": "Domaine d’Anglas"
      },
      "geometry": {
        "type": "Polygon",
        "coordinates": [
          [
            [
              3.717263,
              43.878331
            ],
            [
              3.722906,
              43.879731
            ],
            [
              3.724794,
              43.876197
            ],
            [
              3.723829,
              43.873413
            ],
            [
              3.715289,
              43.87315
            ],
            [
              3.714023,
              43.873908
            ],
            [
              3.717263,
              43.878331
            ]
          ]
        ]
      }
    }
  ]
}